ONEWEB-0180             
1 48213U 21031D   25257.22823413  .00000247  00000+0  63295-3 0  9991
2 48213  87.9092 344.6227 0001899 110.0556 250.0778 13.14504466211960
ONEWEB-0218             
1 48214U 21031E   25257.17431594 -.00001192  00000+0 -32493-2 0  9998
2 48214  87.9093 344.6341 0001387 109.2110 250.9170 13.14510166212114
ONEWEB-0209             
1 48215U 21031F   25257.23934683  .00000242  00000+0  61745-3 0  9999
2 48215  87.9088 344.6647 0002001 104.9192 255.2160 13.14504174212124
ONEWEB-0198             
1 48216U 21031G   25257.22360045  .00000123  00000+0  29718-3 0  9996
2 48216  87.9082 344.6676 0001847 115.6260 244.5061 13.14504683212231
ONEWEB-0189             
1 48217U 21031H   25257.23615599  .00000249  00000+0  63586-3 0  9995
2 48217  87.9078 344.6385 0001781 112.6249 247.5070 13.14504761211975
ONEWEB-0196             
1 48218U 21031J   25257.21396183 -.00000002  00000+0 -38635-4 0  9996
2 48218  87.9085 344.6577 0001872 105.2626 254.8711 13.14503734211977
ONEWEB-0183             
1 48219U 21031K   25256.96023391 -.00000147  00000+0 -43093-3 0  9999
2 48219  87.9083 344.7178 0002090  98.5310 261.6057 13.14502942212038
ONEWEB-0185             
1 48220U 21031L   25257.21474024 -.00000025  00000+0 -10098-3 0  9997
2 48220  87.9085 344.6342 0002246 104.8714 255.2664 13.14504772211996
ONEWEB-0187             
1 48221U 21031M   25257.19481369 -.00000167  00000+0 -48409-3 0  9999
2 48221  87.9090 344.6840 0002062 107.0864 253.0492 13.14503618212009
ONEWEB-0192             
1 48222U 21031N   25257.01256436  .00000217  00000+0  55134-3 0  9993
2 48222  87.9083 344.7134 0001776 102.4886 257.6442 13.14503936211897
ONEWEB-0219             
1 48223U 21031P   25257.22030853  .00000146  00000+0  35821-3 0  9992
2 48223  87.9085 344.6450 0002101 105.4343 254.7019 13.14503398212121
ONEWEB-0202             
1 48224U 21031Q   25257.20127287 -.00000153  00000+0 -44801-3 0  9997
2 48224  87.9085 344.6632 0001624 125.3105 234.8176 13.14502997212105
ONEWEB-0204             
1 48225U 21031R   25257.00701250  .00000290  00000+0  74814-3 0  9991
2 48225  87.9078 344.6913 0002094  95.4374 264.6995 13.14503994211979
ONEWEB-0205             
1 48226U 21031S   25257.21078575 -.00000097  00000+0 -29558-3 0  9994
2 48226  87.9081 344.6417 0002024 105.3033 254.8321 13.14503888212011
ONEWEB-0206             
1 48227U 21031T   25257.25994787 -.00000086  00000+0 -26700-3 0  9995
2 48227  87.9093 344.6145 0001887 101.2083 258.9259 13.14503024211970
ONEWEB-0182             
1 48228U 21031U   25257.25519340 -.00000002  00000+0 -39632-4 0  9991
2 48228  87.9085 344.6588 0002063  97.3236 262.8129 13.14503306212182
