[{"OBJECT_NAME":"ONEWEB-0180","OBJECT_ID":"2021-031D","EPOCH":"2025-09-14T05:28:39.428832","MEAN_MOTION":13.14504466,"ECCENTRICITY":0.00018992,"INCLINATION":87.9092,"RA_OF_ASC_NODE":344.6227,"ARG_OF_PERICENTER":110.0556,"MEAN_ANOMALY":250.0778,"EPHEMERIS_TYPE":0,"CLASSIFICATION_TYPE":"U","NORAD_CAT_ID":48213,"ELEMENT_SET_NO":999,"REV_AT_EPOCH":21196,"BSTAR":0.00063295392,"MEAN_MOTION_DOT":2.47e-6,"MEAN_MOTION_DDOT":0},{"OBJECT_NAME":"ONEWEB-0218","OBJECT_ID":"2021-031E","EPOCH":"2025-09-14T04:11:00.897216","MEAN_MOTION":13.14510166,"ECCENTRICITY":0.00013878,"INCLINATION":87.9093,"RA_OF_ASC_NODE":344.6341,"ARG_OF_PERICENTER":109.211,"MEAN_ANOMALY":250.917,"EPHEMERIS_TYPE":0,"CLASSIFICATION_TYPE":"U","NORAD_CAT_ID":48214,"ELEMENT_SET_NO":999,"REV_AT_EPOCH":21211,"BSTAR":-0.0032492897,"MEAN_MOTION_DOT":-1.192e-5,"MEAN_MOTION_DDOT":0},{"OBJECT_NAME":"ONEWEB-0209","OBJECT_ID":"2021-031F","EPOCH":"2025-09-14T05:44:39.566112","MEAN_MOTION":13.14504174,"ECCENTRICITY":0.0002001,"INCLINATION":87.9088,"RA_OF_ASC_NODE":344.6647,"ARG_OF_PERICENTER":104.9192,"MEAN_ANOMALY":255.216,"EPHEMERIS_TYPE":0,"CLASSIFICATION_TYPE":"U","NORAD_CAT_ID":48215,"ELEMENT_SET_NO":999,"REV_AT_EPOCH":21212,"BSTAR":0.000617451,"MEAN_MOTION_DOT":2.42e-6,"MEAN_MOTION_DDOT":0},{"OBJECT_NAME":"ONEWEB-0198","OBJECT_ID":"2021-031G","EPOCH":"2025-09-14T05:21:59.078880","MEAN_MOTION":13.14504683,"ECCENTRICITY":0.00018478,"INCLINATION":87.9082,"RA_OF_ASC_NODE":344.6676,"ARG_OF_PERICENTER":115.626,"MEAN_ANOMALY":244.5061,"EPHEMERIS_TYPE":0,"CLASSIFICATION_TYPE":"U","NORAD_CAT_ID":48216,"ELEMENT_SET_NO":999,"REV_AT_EPOCH":21223,"BSTAR":0.00029717604,"MEAN_MOTION_DOT":1.23e-6,"MEAN_MOTION_DDOT":0},{"OBJECT_NAME":"ONEWEB-0189","OBJECT_ID":"2021-031H","EPOCH":"2025-09-14T05:40:03.877536","MEAN_MOTION":13.14504761,"ECCENTRICITY":0.00017816,"INCLINATION":87.9078,"RA_OF_ASC_NODE":344.6385,"ARG_OF_PERICENTER":112.6249,"MEAN_ANOMALY":247.507,"EPHEMERIS_TYPE":0,"CLASSIFICATION_TYPE":"U","NORAD_CAT_ID":48217,"ELEMENT_SET_NO":999,"REV_AT_EPOCH":21197,"BSTAR":0.00063586034,"MEAN_MOTION_DOT":2.49e-6,"MEAN_MOTION_DDOT":0},{"OBJECT_NAME":"ONEWEB-0196","OBJECT_ID":"2021-031J","EPOCH":"2025-09-14T05:08:06.302112","MEAN_MOTION":13.14503734,"ECCENTRICITY":0.00018723,"INCLINATION":87.9085,"RA_OF_ASC_NODE":344.6577,"ARG_OF_PERICENTER":105.2626,"MEAN_ANOMALY":254.8711,"EPHEMERIS_TYPE":0,"CLASSIFICATION_TYPE":"U","NORAD_CAT_ID":48218,"ELEMENT_SET_NO":999,"REV_AT_EPOCH":21197,"BSTAR":-3.8634843e-5,"MEAN_MOTION_DOT":-2.0e-8,"MEAN_MOTION_DDOT":0},{"OBJECT_NAME":"ONEWEB-0183","OBJECT_ID":"2021-031K","EPOCH":"2025-09-13T23:02:44.209824","MEAN_MOTION":13.14502942,"ECCENTRICITY":0.00020905,"INCLINATION":87.9083,"RA_OF_ASC_NODE":344.7178,"ARG_OF_PERICENTER":98.531,"MEAN_ANOMALY":261.6057,"EPHEMERIS_TYPE":0,"CLASSIFICATION_TYPE":"U","NORAD_CAT_ID":48219,"ELEMENT_SET_NO":999,"REV_AT_EPOCH":21203,"BSTAR":-0.00043093444,"MEAN_MOTION_DOT":-1.47e-6,"MEAN_MOTION_DDOT":0},{"OBJECT_NAME":"ONEWEB-0185","OBJECT_ID":"2021-031L","EPOCH":"2025-09-14T05:09:13.556736","MEAN_MOTION":13.14504772,"ECCENTRICITY":0.00022468,"INCLINATION":87.9085,"RA_OF_ASC_NODE":344.6342,"ARG_OF_PERICENTER":104.8714,"MEAN_ANOMALY":255.2664,"EPHEMERIS_TYPE":0,"CLASSIFICATION_TYPE":"U","NORAD_CAT_ID":48220,"ELEMENT_SET_NO":999,"REV_AT_EPOCH":21199,"BSTAR":-0.00010098361,"MEAN_MOTION_DOT":-2.5e-7,"MEAN_MOTION_DDOT":0},{"OBJECT_NAME":"ONEWEB-0187","OBJECT_ID":"2021-031M","EPOCH":"2025-09-14T04:40:31.902816","MEAN_MOTION":13.14503618,"ECCENTRICITY":0.0002062,"INCLINATION":87.909,"RA_OF_ASC_NODE":344.684,"ARG_OF_PERICENTER":107.0864,"MEAN_ANOMALY":253.0492,"EPHEMERIS_TYPE":0,"CLASSIFICATION_TYPE":"U","NORAD_CAT_ID":48221,"ELEMENT_SET_NO":999,"REV_AT_EPOCH":21200,"BSTAR":-0.00048408755,"MEAN_MOTION_DOT":-1.67e-6,"MEAN_MOTION_DDOT":0},{"OBJECT_NAME":"ONEWEB-0192","OBJECT_ID":"2021-031N","EPOCH":"2025-09-14T00:18:05.560704","MEAN_MOTION":13.14503936,"ECCENTRICITY":0.00017767,"INCLINATION":87.9083,"RA_OF_ASC_NODE":344.7134,"ARG_OF_PERICENTER":102.4886,"MEAN_ANOMALY":257.6442,"EPHEMERIS_TYPE":0,"CLASSIFICATION_TYPE":"U","NORAD_CAT_ID":48222,"ELEMENT_SET_NO":999,"REV_AT_EPOCH":21189,"BSTAR":0.00055134275,"MEAN_MOTION_DOT":2.17e-6,"MEAN_MOTION_DDOT":0},{"OBJECT_NAME":"ONEWEB-0219","OBJECT_ID":"2021-031P","EPOCH":"2025-09-14T05:17:14.656992","MEAN_MOTION":13.14503398,"ECCENTRICITY":0.00021011,"INCLINATION":87.9085,"RA_OF_ASC_NODE":344.645,"ARG_OF_PERICENTER":105.4343,"MEAN_ANOMALY":254.7019,"EPHEMERIS_TYPE":0,"CLASSIFICATION_TYPE":"U","NORAD_CAT_ID":48223,"ELEMENT_SET_NO":999,"REV_AT_EPOCH":21212,"BSTAR":0.00035820845,"MEAN_MOTION_DOT":1.46e-6,"MEAN_MOTION_DDOT":0},{"OBJECT_NAME":"ONEWEB-0202","OBJECT_ID":"2021-031Q","EPOCH":"2025-09-14T04:49:49.975968","MEAN_MOTION":13.14502997,"ECCENTRICITY":0.00016241,"INCLINATION":87.9085,"RA_OF_ASC_NODE":344.6632,"ARG_OF_PERICENTER":125.3105,"MEAN_ANOMALY":234.8176,"EPHEMERIS_TYPE":0,"CLASSIFICATION_TYPE":"U","NORAD_CAT_ID":48224,"ELEMENT_SET_NO":999,"REV_AT_EPOCH":21210,"BSTAR":-0.00044800858,"MEAN_MOTION_DOT":-1.53e-6,"MEAN_MOTION_DDOT":0},{"OBJECT_NAME":"ONEWEB-0204","OBJECT_ID":"2021-031R","EPOCH":"2025-09-14T00:10:05.880000","MEAN_MOTION":13.14503994,"ECCENTRICITY":0.0002094,"INCLINATION":87.9078,"RA_OF_ASC_NODE":344.6913,"ARG_OF_PERICENTER":95.4374,"MEAN_ANOMALY":264.6995,"EPHEMERIS_TYPE":0,"CLASSIFICATION_TYPE":"U","NORAD_CAT_ID":48225,"ELEMENT_SET_NO":999,"REV_AT_EPOCH":21197,"BSTAR":0.00074814118,"MEAN_MOTION_DOT":2.9e-6,"MEAN_MOTION_DDOT":0},{"OBJECT_NAME":"ONEWEB-0205","OBJECT_ID":"2021-031S","EPOCH":"2025-09-14T05:03:31.888800","MEAN_MOTION":13.14503888,"ECCENTRICITY":0.00020248,"INCLINATION":87.9081,"RA_OF_ASC_NODE":344.6417,"ARG_OF_PERICENTER":105.3033,"MEAN_ANOMALY":254.8321,"EPHEMERIS_TYPE":0,"CLASSIFICATION_TYPE":"U","NORAD_CAT_ID":48226,"ELEMENT_SET_NO":999,"REV_AT_EPOCH":21201,"BSTAR":-0.00029558252,"MEAN_MOTION_DOT":-9.7e-7,"MEAN_MOTION_DDOT":0},{"OBJECT_NAME":"ONEWEB-0206","OBJECT_ID":"2021-031T","EPOCH":"2025-09-14T06:14:19.495968","MEAN_MOTION":13.14503024,"ECCENTRICITY":0.00018878,"INCLINATION":87.9093,"RA_OF_ASC_NODE":344.6145,"ARG_OF_PERICENTER":101.2083,"MEAN_ANOMALY":258.9259,"EPHEMERIS_TYPE":0,"CLASSIFICATION_TYPE":"U","NORAD_CAT_ID":48227,"ELEMENT_SET_NO":999,"REV_AT_EPOCH":21197,"BSTAR":-0.00026699917,"MEAN_MOTION_DOT":-8.6e-7,"MEAN_MOTION_DDOT":0},{"OBJECT_NAME":"ONEWEB-0182","OBJECT_ID":"2021-031U","EPOCH":"2025-09-14T06:07:28.709760","MEAN_MOTION":13.14503306,"ECCENTRICITY":0.00020639,"INCLINATION":87.9085,"RA_OF_ASC_NODE":344.6588,"ARG_OF_PERICENTER":97.3236,"MEAN_ANOMALY":262.8129,"EPHEMERIS_TYPE":0,"CLASSIFICATION_TYPE":"U","NORAD_CAT_ID":48228,"ELEMENT_SET_NO":999,"REV_AT_EPOCH":21218,"BSTAR":-3.9631696e-5,"MEAN_MOTION_DOT":-2.0e-8,"MEAN_MOTION_DDOT":0}]
